{
  "type": "FeatureCollection",
  "features": [
    {
      "type": "Feature",
      "properties": {
        "norad_id": 35580,
        "name": "COSMOS 2251 DEB",
        "group": "cosmos-2251-debris",
        "lat": 3.375585044523482,
        "lon": 172.76832387921272,
        "alt_km": 1156.4199659044161,
        "timestamp": "2025-12-16T19:34:24.664847+00:00",
        "meta_object_name": "COSMOS 2251 DEB",
        "meta_object_id": "1993-036ALX",
        "meta_epoch": "2025-12-15T21:00:04.999104",
        "meta_mean_motion": 13.83885531,
        "meta_eccentricity": 0.02811057,
        "meta_inclination": 73.9013,
        "meta_ra_of_asc_node": 173.3912,
        "meta_arg_of_pericenter": 177.9882,
        "meta_mean_anomaly": 182.2449,
        "meta_ephemeris_type": 0,
        "meta_classification_type": "U",
        "meta_norad_cat_id": 35580,
        "meta_element_set_no": 999,
        "meta_rev_at_epoch": 62300,
        "meta_bstar": 0.001547595,
        "meta_mean_motion_dot": 2.307e-05,
        "meta_mean_motion_ddot": 0,
        "tle_line1": "1 35580U 93036ALX 25349.87505786  .00002307  00000+0  15476-2 0  9997",
        "tle_line2": "2 35580  73.9013 173.3912 0281105 177.9882 182.2449 13.83885531623007"
      },
      "geometry": {
        "type": "Point",
        "coordinates": [
          172.76832387921272,
          3.375585044523482
        ]
      }
    },
    {
      "type": "Feature",
      "properties": {
        "norad_id": 35583,
        "name": "COSMOS 2251 DEB",
        "group": "cosmos-2251-debris",
        "lat": 4.456220205627196,
        "lon": -153.3002946572227,
        "alt_km": 1254.1306496954812,
        "timestamp": "2025-12-16T19:34:24.664858+00:00",
        "meta_object_name": "COSMOS 2251 DEB",
        "meta_object_id": "1993-036AMA",
        "meta_epoch": "2025-12-15T08:07:13.110816",
        "meta_mean_motion": 13.55339959,
        "meta_eccentricity": 0.03853461,
        "meta_inclination": 73.9163,
        "meta_ra_of_asc_node": 207.8047,
        "meta_arg_of_pericenter": 231.6769,
        "meta_mean_anomaly": 124.9115,
        "meta_ephemeris_type": 0,
        "meta_classification_type": "U",
        "meta_norad_cat_id": 35583,
        "meta_element_set_no": 999,
        "meta_rev_at_epoch": 82447,
        "meta_bstar": 0.00076925209,
        "meta_mean_motion_dot": 8.34e-06,
        "meta_mean_motion_ddot": 0,
        "tle_line1": "1 35583U 93036AMA 25349.33834619  .00000834  00000+0  76925-3 0  9991",
        "tle_line2": "2 35583  73.9163 207.8047 0385346 231.6769 124.9115 13.55339959824476"
      },
      "geometry": {
        "type": "Point",
        "coordinates": [
          -153.3002946572227,
          4.456220205627196
        ]
      }
    },
    {
      "type": "Feature",
      "properties": {
        "norad_id": 35585,
        "name": "COSMOS 2251 DEB",
        "group": "cosmos-2251-debris",
        "lat": -62.936885760458665,
        "lon": -164.15671015205976,
        "alt_km": 759.9068474294581,
        "timestamp": "2025-12-16T19:34:24.664868+00:00",
        "meta_object_name": "COSMOS 2251 DEB",
        "meta_object_id": "1993-036AMC",
        "meta_epoch": "2025-12-15T05:46:46.766784",
        "meta_mean_motion": 13.75256406,
        "meta_eccentricity": 0.03105425,
        "meta_inclination": 73.9727,
        "meta_ra_of_asc_node": 344.2358,
        "meta_arg_of_pericenter": 255.9946,
        "meta_mean_anomaly": 118.6807,
        "meta_ephemeris_type": 0,
        "meta_classification_type": "U",
        "meta_norad_cat_id": 35585,
        "meta_element_set_no": 999,
        "meta_rev_at_epoch": 64098,
        "meta_bstar": 0.00097189653,
        "meta_mean_motion_dot": 1.299e-05,
        "meta_mean_motion_ddot": 0,
        "tle_line1": "1 35585U 93036AMC 25349.24081906  .00001299  00000+0  97190-3 0  9999",
        "tle_line2": "2 35585  73.9727 344.2358 0310542 255.9946 118.6807 13.75256406640984"
      },
      "geometry": {
        "type": "Point",
        "coordinates": [
          -164.15671015205976,
          -62.936885760458665
        ]
      }
    },
    {
      "type": "Feature",
      "properties": {
        "norad_id": 35586,
        "name": "COSMOS 2251 DEB",
        "group": "cosmos-2251-debris",
        "lat": 73.8101673704033,
        "lon": 35.23648501946729,
        "alt_km": 982.2783685274317,
        "timestamp": "2025-12-16T19:34:24.664879+00:00",
        "meta_object_name": "COSMOS 2251 DEB",
        "meta_object_id": "1993-036AMD",
        "meta_epoch": "2025-12-14T14:41:57.929856",
        "meta_mean_motion": 13.52086543,
        "meta_eccentricity": 0.04045341,
        "meta_inclination": 74.0206,
        "meta_ra_of_asc_node": 299.4762,
        "meta_arg_of_pericenter": 174.414,
        "meta_mean_anomaly": 3.0917,
        "meta_ephemeris_type": 0,
        "meta_classification_type": "U",
        "meta_norad_cat_id": 35586,
        "meta_element_set_no": 999,
        "meta_rev_at_epoch": 60407,
        "meta_bstar": 0.00036473262,
        "meta_mean_motion_dot": 3.81e-06,
        "meta_mean_motion_ddot": 0,
        "tle_line1": "1 35586U 93036AMD 25348.61247604  .00000381  00000+0  36473-3 0  9997",
        "tle_line2": "2 35586  74.0206 299.4762 0404534 174.4140   3.0917 13.52086543604072"
      },
      "geometry": {
        "type": "Point",
        "coordinates": [
          35.23648501946729,
          73.8101673704033
        ]
      }
    },
    {
      "type": "Feature",
      "properties": {
        "norad_id": 35587,
        "name": "COSMOS 2251 DEB",
        "group": "cosmos-2251-debris",
        "lat": -72.49535339047773,
        "lon": -14.94347289257781,
        "alt_km": 607.5588437662254,
        "timestamp": "2025-12-16T19:34:24.664889+00:00",
        "meta_object_name": "COSMOS 2251 DEB",
        "meta_object_id": "1993-036AME",
        "meta_epoch": "2025-12-14T20:37:50.785248",
        "meta_mean_motion": 14.71528954,
        "meta_eccentricity": 0.01025521,
        "meta_inclination": 74.0053,
        "meta_ra_of_asc_node": 54.2968,
        "meta_arg_of_pericenter": 241.4805,
        "meta_mean_anomaly": 117.6013,
        "meta_ephemeris_type": 0,
        "meta_classification_type": "U",
        "meta_norad_cat_id": 35587,
        "meta_element_set_no": 999,
        "meta_rev_at_epoch": 66377,
        "meta_bstar": 0.00024093768,
        "meta_mean_motion_dot": 1.587e-05,
        "meta_mean_motion_ddot": 0,
        "tle_line1": "1 35587U 93036AME 25348.85961557  .00001587  00000+0  24094-3 0  9999",
        "tle_line2": "2 35587  74.0053  54.2968 0102552 241.4805 117.6013 14.71528954663776"
      },
      "geometry": {
        "type": "Point",
        "coordinates": [
          -14.94347289257781,
          -72.49535339047773
        ]
      }
    },
    {
      "type": "Feature",
      "properties": {
        "norad_id": 35593,
        "name": "COSMOS 2251 DEB",
        "group": "cosmos-2251-debris",
        "lat": 73.2723521669706,
        "lon": 29.435438040043053,
        "alt_km": 873.1089834444992,
        "timestamp": "2025-12-16T19:34:24.664899+00:00",
        "meta_object_name": "COSMOS 2251 DEB",
        "meta_object_id": "1993-036AML",
        "meta_epoch": "2025-12-15T04:23:19.904064",
        "meta_mean_motion": 14.25607605,
        "meta_eccentricity": 0.01051999,
        "meta_inclination": 74.0859,
        "meta_ra_of_asc_node": 284.0519,
        "meta_arg_of_pericenter": 290.0148,
        "meta_mean_anomaly": 68.9696,
        "meta_ephemeris_type": 0,
        "meta_classification_type": "U",
        "meta_norad_cat_id": 35593,
        "meta_element_set_no": 999,
        "meta_rev_at_epoch": 85100,
        "meta_bstar": 0.00058381828,
        "meta_mean_motion_dot": 1.439e-05,
        "meta_mean_motion_ddot": 0,
        "tle_line1": "1 35593U 93036AML 25349.18286926  .00001439  00000+0  58382-3 0  9996",
        "tle_line2": "2 35593  74.0859 284.0519 0105199 290.0148  68.9696 14.25607605851002"
      },
      "geometry": {
        "type": "Point",
        "coordinates": [
          29.435438040043053,
          73.2723521669706
        ]
      }
    },
    {
      "type": "Feature",
      "properties": {
        "norad_id": 35594,
        "name": "COSMOS 2251 DEB",
        "group": "cosmos-2251-debris",
        "lat": -51.10615447860145,
        "lon": -60.588423103863185,
        "alt_km": 591.0764275361753,
        "timestamp": "2025-12-16T19:34:24.664909+00:00",
        "meta_object_name": "COSMOS 2251 DEB",
        "meta_object_id": "1993-036AMM",
        "meta_epoch": "2025-12-11T07:49:43.768128",
        "meta_mean_motion": 14.87869065,
        "meta_eccentricity": 0.00302327,
        "meta_inclination": 73.8067,
        "meta_ra_of_asc_node": 109.3962,
        "meta_arg_of_pericenter": 220.7507,
        "meta_mean_anomaly": 139.1411,
        "meta_ephemeris_type": 0,
        "meta_classification_type": "U",
        "meta_norad_cat_id": 35594,
        "meta_element_set_no": 999,
        "meta_rev_at_epoch": 88164,
        "meta_bstar": 0.003372362,
        "meta_mean_motion_dot": 0.00031222,
        "meta_mean_motion_ddot": 0,
        "tle_line1": "1 35594U 93036AMM 25345.32620102  .00031222  00000+0  33724-2 0  9992",
        "tle_line2": "2 35594  73.8067 109.3962 0030232 220.7507 139.1411 14.87869065881643"
      },
      "geometry": {
        "type": "Point",
        "coordinates": [
          -60.588423103863185,
          -51.10615447860145
        ]
      }
    }
  ]
}